[{"OBJECT_NAME":"SITRO-AIS 23","OBJECT_ID":"2024-199H","EPOCH":"2026-03-09T22:39:00.533088","MEAN_MOTION":14.95417613,"ECCENTRICITY":0.001348,"INCLINATION":97.3327,"RA_OF_ASC_NODE":273.3902,"ARG_OF_PERICENTER":42.7028,"MEAN_ANOMALY":317.5239,"EPHEMERIS_TYPE":0,"CLASSIFICATION_TYPE":"U","NORAD_CAT_ID":61742,"ELEMENT_SET_NO":999,"REV_AT_EPOCH":11693,"BSTAR":0.00028445892,"MEAN_MOTION_DOT":3.096e-5,"MEAN_MOTION_DDOT":0},{"OBJECT_NAME":"STARLINK-34117","OBJECT_ID":"2025-102U","EPOCH":"2026-03-09T12:28:57.378720","MEAN_MOTION":14.98306685,"ECCENTRICITY":0.0003098,"INCLINATION":70.0009,"RA_OF_ASC_NODE":115.004,"ARG_OF_PERICENTER":269.949,"MEAN_ANOMALY":90.1314,"EPHEMERIS_TYPE":0,"CLASSIFICATION_TYPE":"U","NORAD_CAT_ID":64040,"ELEMENT_SET_NO":999,"REV_AT_EPOCH":4586,"BSTAR":0.00077784,"MEAN_MOTION_DOT":9.195e-5,"MEAN_MOTION_DDOT":0}]
